{
  "type": "FeatureCollection",
  "name": "starbound-objects",
  "features": [
    {
      "type": "Feature",
      "geometry": { "type": "Point", "coordinates": [23.47314, 0.67416] },
      "properties": {
        "id": "apollo-11-descent-stage",
        "name": "Apollo 11 Lunar Module descent stage",
        "mission": "Apollo 11",
        "agency": "NASA",
        "body": "moon",
        "lat": 0.67416,
        "lon": 23.47314,
        "left_behind": 1969,
        "last_contact": "1969-07-21 (ascent stage lifted off 17:54:01 UT)",
        "why_left": "The descent stage served as the launch platform for the ascent stage, which carried the crew back to the orbiting Command/Service Module. The descent stage was left behind on the Moon.",
        "science_enabled": "Its storage bay carried the Early Apollo Scientific Experiment Package (passive seismometer, lunar dust detector) and a laser ranging retroreflector the crew left on the surface. The crew collected 21.55 kg of lunar samples.",
        "image": "/assets/objects/apollo-11-descent-stage.jpg",
        "image_credit": "NASA (image via NSSDCA)",
        "dataset_id": "NSSDCA/COSPAR 1969-059C",
        "verified": true,
        "story_id": null,
        "status": "left-behind",
        "location_state": "on-surface",
        "last_known_location": "Moon surface; draft coordinates 0.67416, 23.47314",
        "hardware": "Lunar Module descent stage",
        "current_status": "Inactive hardware left on the surface by the crew.",
        "source_url": "https://www.nasa.gov/mission/apollo-11/"
      }
    },
    {
      "type": "Feature",
      "geometry": { "type": "Point", "coordinates": [-23.4219, -3.0128] },
      "properties": {
        "id": "apollo-12-descent-stage",
        "name": "Apollo 12 Lunar Module descent stage",
        "mission": "Apollo 12",
        "agency": "NASA",
        "body": "moon",
        "lat": -3.0128,
        "lon": -23.4219,
        "left_behind": 1969,
        "last_contact": "1969-11-20 (ascent stage lifted off 14:25:47 UT)",
        "why_left": "The descent stage served as the launch platform for the ascent stage, which carried the crew back to the orbiting Command/Service Module. The descent stage was left behind on the Moon.",
        "science_enabled": "Carried the ALSEP instrument package (passive seismometer, suprathermal ion detector, cold cathode ion gauge, dust detector, magnetometer, solar wind spectrometer). The crew collected 34.35 kg of samples and returned about 10 kg of parts from Surveyor 3, which landed within about 180 m.",
        "image": "/assets/objects/apollo-12-descent-stage.jpg",
        "image_credit": "NASA (image via NSSDCA)",
        "dataset_id": "NSSDCA/COSPAR 1969-099C",
        "verified": true,
        "story_id": null,
        "status": "left-behind",
        "location_state": "on-surface",
        "last_known_location": "Moon surface; draft coordinates -3.0128, -23.4219",
        "hardware": "Lunar Module descent stage",
        "current_status": "Inactive hardware left on the surface by the crew.",
        "source_url": "https://www.nasa.gov/mission/apollo-12/"
      }
    },
    {
      "type": "Feature",
      "geometry": { "type": "Point", "coordinates": [-17.47194, -3.64589] },
      "properties": {
        "id": "apollo-14-descent-stage",
        "name": "Apollo 14 Lunar Module descent stage",
        "mission": "Apollo 14",
        "agency": "NASA",
        "body": "moon",
        "lat": -3.64589,
        "lon": -17.47194,
        "left_behind": 1971,
        "last_contact": "1971-02-06 (ascent stage lifted off 18:48:42 UT)",
        "why_left": "The descent stage served as the launch platform for the ascent stage, which carried the crew back to the orbiting Command/Service Module. The descent stage was left behind on the Moon.",
        "science_enabled": "Carried the ALSEP instrument package (passive and active seismometers, suprathermal ion detector, charged particle experiment, cold cathode ion gauge, dust detector). The crew collected 42.28 kg of lunar samples.",
        "image": "/assets/objects/apollo-14-descent-stage.jpg",
        "image_credit": "NASA (image via NSSDCA)",
        "dataset_id": "NSSDCA/COSPAR 1971-008C",
        "verified": true,
        "story_id": null,
        "status": "left-behind",
        "location_state": "on-surface",
        "last_known_location": "Moon surface; draft coordinates -3.64589, -17.47194",
        "hardware": "Lunar Module descent stage",
        "current_status": "Inactive hardware left on the surface by the crew.",
        "source_url": "https://www.nasa.gov/missions/apollo/apollo-14-mission-details/"
      }
    },
    {
      "type": "Feature",
      "geometry": { "type": "Point", "coordinates": [3.6333, 26.13239] },
      "properties": {
        "id": "apollo-15-descent-stage",
        "name": "Apollo 15 Lunar Module descent stage",
        "mission": "Apollo 15",
        "agency": "NASA",
        "body": "moon",
        "lat": 26.13239,
        "lon": 3.6333,
        "left_behind": 1971,
        "last_contact": "1971-08-02 (ascent stage lifted off 17:11:22 UT)",
        "why_left": "The descent stage served as the launch platform for the ascent stage, which carried the crew back to the orbiting Command/Service Module. The descent stage was left behind on the Moon.",
        "science_enabled": "Carried the Lunar Roving Vehicle and the ALSEP package (passive seismometer, magnetometer, solar wind spectrometer, suprathermal ion detector, cold cathode ion gauge, dust detector, heat flow experiment). The crew drove 27.9 km and collected 77.31 kg of samples.",
        "image": "/assets/objects/apollo-15-descent-stage.jpg",
        "image_credit": "NASA (image via NSSDCA)",
        "dataset_id": "NSSDCA/COSPAR 1971-063C",
        "verified": true,
        "story_id": "apollo15",
        "status": "left-behind",
        "location_state": "on-surface",
        "last_known_location": "Moon surface; draft coordinates 26.13239, 3.6333",
        "hardware": "Lunar Module descent stage",
        "current_status": "Inactive hardware left on the surface by the crew.",
        "source_url": "https://www.nasa.gov/missions/apollo/apollo-15-mission-details/"
      }
    },
    {
      "type": "Feature",
      "geometry": { "type": "Point", "coordinates": [15.5011, -8.9734] },
      "properties": {
        "id": "apollo-16-descent-stage",
        "name": "Apollo 16 Lunar Module descent stage",
        "mission": "Apollo 16",
        "agency": "NASA",
        "body": "moon",
        "lat": -8.9734,
        "lon": 15.5011,
        "left_behind": 1972,
        "last_contact": "1972-04-24 (ascent stage lifted off 01:25:48 UT)",
        "why_left": "The descent stage served as the launch platform for the ascent stage, which carried the crew back to the orbiting Command/Service Module. The descent stage was left behind on the Moon.",
        "science_enabled": "Carried the Lunar Roving Vehicle and the ALSEP package (passive and active seismometers, magnetometer, heat flow experiment, which was damaged during setup). The crew covered 27 km and collected 95.71 kg of samples.",
        "image": "/assets/objects/apollo-16-descent-stage.jpg",
        "image_credit": "NASA (image via NSSDCA)",
        "dataset_id": "NSSDCA/COSPAR 1972-031C",
        "verified": true,
        "story_id": null,
        "status": "left-behind",
        "location_state": "on-surface",
        "last_known_location": "Moon surface; draft coordinates -8.9734, 15.5011",
        "hardware": "Lunar Module descent stage",
        "current_status": "Inactive hardware left on the surface by the crew.",
        "source_url": "https://www.nasa.gov/missions/apollo/apollo-16-mission-details/"
      }
    },
    {
      "type": "Feature",
      "geometry": { "type": "Point", "coordinates": [30.7723, 20.1911] },
      "properties": {
        "id": "apollo-17-descent-stage",
        "name": "Apollo 17 Lunar Module descent stage",
        "mission": "Apollo 17",
        "agency": "NASA",
        "body": "moon",
        "lat": 20.1911,
        "lon": 30.7723,
        "left_behind": 1972,
        "last_contact": "1972-12-14 (ascent stage lifted off 22:54:37 UT)",
        "why_left": "The descent stage served as the launch platform for the ascent stage, which carried the crew back to the orbiting Command/Service Module. The descent stage was left behind on the Moon.",
        "science_enabled": "Carried the Lunar Roving Vehicle and the ALSEP package (heat flow experiment, surface gravimeter, mass spectrometer, seismic profiling, ejecta and meteorites experiment). The crew covered 30 km and collected 110.52 kg of samples.",
        "image": "/assets/objects/apollo-17-descent-stage.jpg",
        "image_credit": "NASA (image via NSSDCA)",
        "dataset_id": "NSSDCA/COSPAR 1972-096C",
        "verified": true,
        "story_id": null,
        "status": "left-behind",
        "location_state": "on-surface",
        "last_known_location": "Moon surface; draft coordinates 20.1911, 30.7723",
        "hardware": "Lunar Module descent stage",
        "current_status": "Inactive hardware left on the surface by the crew.",
        "source_url": "https://www.nasa.gov/missions/apollo/apollo-17-mission-details/"
      }
    },
    {
      "type": "Feature",
      "geometry": { "type": "Point", "coordinates": [3.63972, 26.1311] },
      "properties": {
        "id": "apollo-15-lrv",
        "name": "Apollo 15 Lunar Roving Vehicle",
        "mission": "Apollo 15",
        "agency": "NASA",
        "body": "moon",
        "lat": 26.1311,
        "lon": 3.63972,
        "left_behind": 1971,
        "last_contact": "1971-08-02",
        "why_left": "The Lunar Roving Vehicle was left on the Moon because only the Lunar Module ascent stage returned to lunar orbit. The rover remained at the Apollo 15 Hadley-Apennine landing site after the astronauts completed their final EVA.",
        "science_enabled": "No. The Apollo 15 LRV was a crewed exploration vehicle used for transportation, geological exploration, and astronaut mobility. It did not carry independent long-term science instruments after abandonment.",
        "image": "/assets/objects/apollo_lrv.jpg",
        "image_credit": "NASA / Lunar Reconnaissance Orbiter Camera (LROC)",
        "dataset_id": "Apollo 15 Lunar Roving Vehicle / NSSDCA",
        "verified": true,
        "story_id": "apollo-15-lrv",
        "status": "left-behind",
        "location_state": "on-surface",
        "last_known_location": "Moon surface; draft coordinates 26.1311, 3.63972",
        "hardware": "Lunar roving vehicle",
        "current_status": "Inactive hardware left on the surface by the crew.",
        "source_url": "https://www.nasa.gov/missions/apollo/apollo-15-mission-details/"
      }
    },
    {
      "type": "Feature",
      "geometry": { "type": "Point", "coordinates": [-23.34, -3.01] },
      "properties": {
        "id": "surveyor-3",
        "name": "Surveyor 3 lander (Appx)",
        "mission": "Surveyor 3",
        "agency": "NASA",
        "body": "moon",
        "lat": -3.01,
        "lon": -23.34,
        "left_behind": 1967,
        "last_contact": "04 May 1967 at 00:04 UT",
        "why_left": "Surveyor 3 was a fixed robotic lander with no way to leave the Moon, so it stayed where it landed in 1967. Apollo 12 landed within about 180 m of it. On 20 November 1969 astronauts Pete Conrad and Alan Bean examined it and removed about 10 kg of parts, including the TV camera. The rest of the spacecraft was left behind.",
        "science_enabled": "Its television camera sent close-up images of the lunar surface to check whether the terrain was safe for crewed landings. Its soil mechanics surface sampler scoop dug trenches for soil tests. The parts Apollo 12 brought back were examined on Earth, and the camera is now on display at the Smithsonian National Air and Space Museum.",
        "image": "/assets/objects/surveyor-3.gif",
        "image_credit": "NASA (image via NSSDCA)",
        "dataset_id": "1967-035A",
        "verified": true,
        "story_id": "surveyor3",
        "status": "silent",
        "location_state": "on-surface",
        "last_known_location": "Moon surface; draft coordinates -3.01, -23.34",
        "hardware": "Lander",
        "current_status": "Not communicating; no active mission operations.",
        "source_url": "https://science.nasa.gov/mission/surveyor-3/"
      }
    },
    {
      "type": "Feature",
      "geometry": { "type": "Point", "coordinates": [-43.3398, -2.4745] },
      "properties": {
        "id": "surveyor-1",
        "name": "Surveyor 1 lander",
        "mission": "Surveyor 1",
        "agency": "NASA",
        "body": "moon",
        "lat": -2.4745,
        "lon": -43.3398,
        "left_behind": 1967,
        "last_contact": "1967-01-07 (last engineering interrogation; picture mission ended 1966-07-13 07:30 UT)",
        "why_left": "Surveyor 1 was a one-way lander and stayed where it landed. Its picture mission ended on 13 July 1966, after battery voltage dropped sharply just after sunset. Engineering contacts continued until 7 January 1967.",
        "science_enabled": "Returned 11,240 pictures of its footpad and the surrounding terrain, plus data on the radar reflectivity and bearing strength of the lunar surface and on spacecraft temperatures. It was the first US spacecraft to land safely on the Moon.",
        "image": "/assets/objects/surveyor-1.gif",
        "image_credit": "NASA (generic Surveyor spacecraft image, via NSSDCA; not a photo of the Surveyor 1 site)",
        "dataset_id": "NSSDCA/COSPAR 1966-045A",
        "verified": true,
        "story_id": "surveyor1",
        "status": "silent",
        "location_state": "on-surface",
        "last_known_location": "Moon surface; draft coordinates -2.4745, -43.3398",
        "hardware": "Lander",
        "current_status": "Not communicating; no active mission operations.",
        "source_url": "https://science.nasa.gov/mission/surveyor-1/"
      }
    },
    {
      "type": "Feature",
      "geometry": { "type": "Point", "coordinates": [23.1943, 1.4551] },
      "properties": {
        "id": "surveyor-5",
        "name": "Surveyor 5 lander",
        "mission": "Surveyor 5",
        "agency": "NASA",
        "body": "moon",
        "lat": 1.4551,
        "lon": 23.1943,
        "left_behind": 1967,
        "last_contact": "1967-12-17 04:30 UT (final transmission)",
        "why_left": "Surveyor 5 was a one-way lander and stayed where it landed. Its final transmission came at 04:30 UT on 17 December 1967, after four lunar days of operation.",
        "science_enabled": "Returned 19,118 pictures. Its alpha-scattering instrument made the first in-situ chemical analysis of another world's surface, finding soil like basalt. A vernier engine erosion test showed minor erosion of the surface.",
        "image": "/assets/objects/surveyor-5.gif",
        "image_credit": "NASA (Surveyor 5 footpad image, via NSSDCA)",
        "dataset_id": "NSSDCA/COSPAR 1967-084A",
        "verified": true,
        "story_id": "surveyor5",
        "status": "silent",
        "location_state": "on-surface",
        "last_known_location": "Moon surface; draft coordinates 1.4551, 23.1943",
        "hardware": "Lander",
        "current_status": "Not communicating; no active mission operations.",
        "source_url": "https://science.nasa.gov/mission/surveyor-5/"
      }
    },
    {
      "type": "Feature",
      "geometry": { "type": "Point", "coordinates": [-1.4275, 0.4742] },
      "properties": {
        "id": "surveyor-6",
        "name": "Surveyor 6 lander",
        "mission": "Surveyor 6",
        "agency": "NASA",
        "body": "moon",
        "lat": 0.4742,
        "lon": -1.4275,
        "left_behind": 1967,
        "last_contact": "1967-12-14 19:14 UT (last transmission)",
        "why_left": "Surveyor 6 was a one-way lander. After its hop of about 2.4 m on 17 November 1967 it stayed where it came down. It was put into hibernation for the lunar night, and the last transmission came on 14 December 1967 with no useful data.",
        "science_enabled": "Returned 29,952 images and 30 hours of alpha-scattering data showing a basaltic surface. On 17 November 1967 it made the first powered takeoff from the lunar surface, a 3 to 4 m hop that gave stereo views of the site. Its soil data showed the surface could support human landings.",
        "image": "/assets/objects/surveyor-6.gif",
        "image_credit": "NASA (Surveyor 6 panorama of Sinus Medii, via NSSDCA)",
        "dataset_id": "NSSDCA/COSPAR 1967-112A",
        "verified": true,
        "story_id": "surveyor6",
        "status": "silent",
        "location_state": "on-surface",
        "last_known_location": "Moon surface; draft coordinates 0.4742, -1.4275",
        "hardware": "Lander",
        "current_status": "Not communicating; no active mission operations.",
        "source_url": "https://science.nasa.gov/mission/surveyor-6/"
      }
    },
    {
      "type": "Feature",
      "geometry": { "type": "Point", "coordinates": [-11.5127, -40.9812] },
      "properties": {
        "id": "surveyor-7",
        "name": "Surveyor 7 lander",
        "mission": "Surveyor 7",
        "agency": "NASA",
        "body": "moon",
        "lat": -40.9812,
        "lon": -11.5127,
        "left_behind": 1968,
        "last_contact": "1968-02-21 12:24 UT (operations terminated)",
        "why_left": "Surveyor 7 was a one-way lander and stayed where it landed. Operations ended on 21 February 1968 after two lunar days of work.",
        "science_enabled": "Returned 21,038 pictures and 100 hours of alpha-scattering data in all, from the Tycho highlands. Its surface sampler dug trenches and moved four rocks over 36 hours. The highland soil was poorer in iron-group elements than the mare samples from earlier missions. It also detected laser beams sent from Earth.",
        "image": "/assets/objects/surveyor-7.gif",
        "image_credit": "NASA (Surveyor 7 panorama near Tycho, via NSSDCA)",
        "dataset_id": "NSSDCA/COSPAR 1968-001A",
        "verified": true,
        "story_id": "surveyor7",
        "status": "silent",
        "location_state": "on-surface",
        "last_known_location": "Moon surface; draft coordinates -40.9812, -11.5127",
        "hardware": "Lander",
        "current_status": "Not communicating; no active mission operations.",
        "source_url": "https://science.nasa.gov/mission/surveyor-7/"
      }
    },
    {
      "type": "Feature",
      "geometry": { "type": "Point", "coordinates": [-47.95, 22.27] },
      "properties": {
        "id": "viking-1-lander",
        "name": "Viking 1 Lander (Thomas Mutch Memorial Station) (Appx)",
        "mission": "Viking 1",
        "agency": "NASA",
        "body": "mars",
        "lat": 22.27,
        "lon": -47.95,
        "left_behind": 1982,
        "last_contact": "1982-11-13",
        "why_left": "The lander is a fixed surface station. It has no way to leave Mars: it kept operating until contact was lost, and it remains where it touched down.",
        "science_enabled": "Studied the biology, chemical composition, meteorology, seismology, magnetic properties, appearance and physical properties of the martian surface and atmosphere, with two cameras, a sampler arm, a meteorology boom, a seismometer, a biology experiment and a gas chromatograph mass spectrometer.",
        "image": "/assets/objects/viking-1-lander.jpg",
        "image_credit": "NASA (spacecraft model, via NSSDCA)",
        "dataset_id": "NSSDCA/COSPAR 1975-075C; HiRISE PSP_001521_2025",
        "verified": true,
        "story_id": "viking-1",
        "status": "silent",
        "location_state": "on-surface",
        "last_known_location": "Mars surface; draft coordinates 22.27, -47.95",
        "hardware": "Lander",
        "current_status": "Not communicating; no active mission operations.",
        "source_url": "https://science.nasa.gov/mission/viking/"
      }
    },
    {
      "type": "Feature",
      "geometry": { "type": "Point", "coordinates": [134.2809, 47.6673] },
      "properties": {
        "id": "viking-2-lander",
        "name": "Viking 2 Lander (Gerald Soffen Memorial Station)",
        "mission": "Viking 2",
        "agency": "NASA",
        "body": "mars",
        "lat": 47.6673,
        "lon": 134.2809,
        "left_behind": 1980,
        "last_contact": "1980-04-11",
        "why_left": "The lander is a fixed surface station. It has no way to leave Mars: it was turned off when its batteries failed and it remains where it landed.",
        "science_enabled": "Studied the biology, chemical composition, meteorology, seismology, magnetic properties, appearance and physical properties of the martian surface and atmosphere, with two cameras, a sampler arm, a meteorology boom, a seismometer, a biology experiment and a gas chromatograph mass spectrometer.",
        "image": "/assets/objects/viking-2-lander.jpg",
        "image_credit": "NASA (spacecraft model, via NSSDCA)",
        "dataset_id": "NSSDCA/COSPAR 1975-083C; HiRISE PSP_001501_2280",
        "verified": true,
        "story_id": "viking-2",
        "status": "silent",
        "location_state": "on-surface",
        "last_known_location": "Mars surface; draft coordinates 47.6673, 134.2809",
        "hardware": "Lander",
        "current_status": "Not communicating; no active mission operations.",
        "source_url": "https://science.nasa.gov/mission/viking/"
      }
    },
    {
      "type": "Feature",
      "geometry": { "type": "Point", "coordinates": [-33.55, 19.33] },
      "properties": {
        "id": "sojourner-pathfinder",
        "name": "Sojourner rover and Mars Pathfinder lander (Appx)",
        "mission": "Mars Pathfinder",
        "agency": "NASA",
        "body": "mars",
        "lat": 19.33,
        "lon": -33.55,
        "left_behind": 1997,
        "last_contact": "27 September 1997",
        "why_left": "Both the stationary lander and the Sojourner rover stayed at the Ares Vallis site. Images were taken and experiments run until 27 September 1997, when communications were lost for unknown reasons.",
        "science_enabled": "Showed that low-cost landings and rover exploration of Mars were feasible. It returned atmospheric entry data, long-range and close-up surface images, rock and soil composition and material-properties measurements, and weather data from the lander's meteorology station. The lander also relayed the rover's data to Earth.",
        "image": "/assets/objects/marspath_lander.gif",
        "image_credit": "NASA (image via NSSDCA)",
        "dataset_id": "1996-068A",
        "verified": true,
        "story_id": "sojourner",
        "status": "silent",
        "location_state": "on-surface",
        "last_known_location": "Mars surface; draft coordinates 19.33, -33.55",
        "hardware": "Sojourner rover and Pathfinder lander",
        "current_status": "Not communicating; no active mission operations.",
        "source_url": "https://science.nasa.gov/mission/mars-pathfinder/"
      }
    },
    {
      "type": "Feature",
      "geometry": { "type": "Point", "coordinates": [175.4729, -14.5692] },
      "properties": {
        "id": "spirit",
        "name": "Spirit rover landing site (Columbia Memorial Station)",
        "mission": "Mars Exploration Rover (Spirit)",
        "agency": "NASA",
        "body": "mars",
        "lat": -14.5692,
        "lon": 175.4729,
        "left_behind": 2010,
        "last_contact": "2010-03-22",
        "why_left": "Spirit concluded its mission in 2010 and stayed on Mars. It had driven 7.7 km.",
        "science_enabled": "Landed in Gusev Crater, a possible former lake. By studying the rock record, Spirit and Opportunity confirmed that water was long standing on the surface of Mars in ancient times.",
        "image": "/assets/objects/mer-bythenumbers-infographic-feb2019.jpg",
        "image_credit": "NASA/JPL-Caltech",
        "dataset_id": "NSSDCA/COSPAR 2003-027A",
        "verified": true,
        "story_id": "spirit",
        "status": "silent",
        "location_state": "on-surface",
        "last_known_location": "Mars surface; draft coordinates -14.5692, 175.4729",
        "hardware": "Mars rover",
        "current_status": "Not communicating; no active mission operations.",
        "source_url": "https://science.nasa.gov/mission/mars-exploration-rovers-spirit-and-opportunity/"
      }
    },
    {
      "type": "Feature",
      "geometry": { "type": "Point", "coordinates": [-5.52583, -1.9483] },
      "properties": {
        "id": "opportunity",
        "name": "Opportunity rover landing site",
        "mission": "Mars Exploration Rover (Opportunity)",
        "agency": "NASA",
        "body": "mars",
        "lat": -1.9483,
        "lon": -5.52583,
        "left_behind": 2018,
        "last_contact": "2018-06-10 (last communication; mission declared complete 2019-02-13)",
        "why_left": "Opportunity's last communication with Earth came on 10 June 2018, while a planet-wide dust storm covered its location. NASA declared the mission complete on 13 February 2019. The rover stayed at its final resting spot, Perseverance Valley, after driving 45.16 km.",
        "science_enabled": "Landed in Meridiani Planum, where mineral deposits suggested a wet history. By studying the rock record, Spirit and Opportunity confirmed that water was long standing on the surface of Mars in ancient times.",
        "image": "/assets/objects/solar_panels_on_rover_seen_from_above.jpeg",
        "image_credit": "NASA/JPL-Caltech/Cornell Univ./Arizona State Univ.",
        "dataset_id": "NSSDCA/COSPAR 2003-032A",
        "verified": true,
        "story_id": "opportunity",
        "status": "silent",
        "location_state": "on-surface",
        "last_known_location": "Mars surface; draft coordinates -1.9483, -5.52583",
        "hardware": "Mars rover",
        "current_status": "Not communicating; no active mission operations.",
        "source_url": "https://science.nasa.gov/mission/mars-exploration-rovers-spirit-and-opportunity/"
      }
    },
    {
      "type": "Feature",
      "geometry": { "type": "Point", "coordinates": [136, 4.5] },
      "properties": {
        "id": "insight",
        "name": "InSight lander",
        "mission": "InSight",
        "agency": "NASA",
        "body": "mars",
        "lat": 4.5,
        "lon": 136,
        "left_behind": 2022,
        "last_contact": "5 December 2022",
        "why_left": "After two failed attempts to communicate with the lander, the mission was declared over, presumably due to the inability of the solar cell batteries to maintain enough power to run the spacecraft, on 21 December 2022.",
        "science_enabled": "Carried SEIS, a six-component seismometer; HP3, a self-penetrating heat-flow probe; and RISE, which used the X-band radio to track the planet's motion precisely. Its TWINS wind and temperature sensors, pressure sensor and magnetometer helped separate environmental signals from seismic ones. It also had two cameras, an infrared radiometer and a small laser retroreflector on the deck.",
        "image": "/assets/objects/insight.gif",
        "image_credit": "NASA (image via NSSDCA)",
        "dataset_id": "2018-042A",
        "verified": true,
        "story_id": "insight",
        "status": "silent",
        "location_state": "on-surface",
        "last_known_location": "Mars surface; draft coordinates 4.5, 136",
        "hardware": "Lander",
        "current_status": "Not communicating; no active mission operations.",
        "source_url": "https://science.nasa.gov/mission/insight/"
      }
    },
    {
      "type": "Feature",
      "geometry": { "type": "Point", "coordinates": [-125.9, 68.15] },
      "properties": {
        "id": "phoenix",
        "name": "Phoenix lander (Appx)",
        "mission": "Phoenix",
        "agency": "NASA",
        "body": "mars",
        "lat": 68.15,
        "lon": -125.9,
        "left_behind": 2008,
        "last_contact": "2008-11-02 (last signal)",
        "why_left": "Phoenix could not leave Mars. As the northern summer ended, the mission had less solar energy to operate. It made its last transmission on 2 November 2008, before its power ran out.",
        "science_enabled": "Studied the polar climate, weather and lower atmosphere, and the geomorphology and near-surface regolith of the northern plains, focusing on the role of water. Its instruments were a microscopy, electrochemistry and conductivity analyzer, a robotic arm camera, a surface stereo imager, a thermal and evolved gas analyzer, and a weather station. NASA said in July 2008 that it had confirmed Martian water, which is a press-release headline on the page, so read the release before you quote it.",
        "image": "/assets/objects/phoenix_lander.gif",
        "image_credit": "NASA/JPL-Caltech/University of Arizona",
        "dataset_id": "2007-034A",
        "verified": true,
        "story_id": "phoenix",
        "status": "silent",
        "location_state": "on-surface",
        "last_known_location": "Mars surface; draft coordinates 68.15, -125.9",
        "hardware": "Lander",
        "current_status": "Not communicating; no active mission operations.",
        "source_url": "https://science.nasa.gov/mission/mars-phoenix/"
      }
    },
    {
      "type": "Feature",
      "geometry": { "type": "Point", "coordinates": [-20.677, -10.634] },
      "properties": {
        "id": "ranger-7",
        "name": "Ranger 7 impact site",
        "mission": "Ranger 7",
        "agency": "NASA",
        "body": "moon",
        "lat": -10.634,
        "lon": -20.677,
        "left_behind": 1964,
        "last_contact": "1964-07-31 13:25:48.82 UT (impact)",
        "why_left": "Ranger 7 was designed to fly into the Moon on an impact trajectory and send photographs until impact. It crashed at 2.62 km/s in Mare Cognitum, so the wreck remains there.",
        "science_enabled": "Its six TV cameras sent 4,308 photographs of excellent quality during the last 17 minutes of flight. The final image before impact has a resolution of 0.5 m.",
        "image": "/assets/objects/ranger-7.gif",
        "image_credit": "NASA (image of the Ranger 7 spacecraft, via NSSDCA)",
        "dataset_id": "NSSDCA/COSPAR 1964-041A",
        "verified": true,
        "story_id": "ranger7",
        "status": "deliberate-impact",
        "location_state": "impacted",
        "last_known_location": "Moon surface; draft coordinates -10.634, -20.677",
        "hardware": "Lunar impact imaging probe",
        "current_status": "Destroyed by planned impact or atmospheric entry.",
        "source_url": "https://science.nasa.gov/mission/ranger-7/"
      }
    },
    {
      "type": "Feature",
      "geometry": { "type": "Point", "coordinates": [24.7881, 2.6376] },
      "properties": {
        "id": "ranger-8",
        "name": "Ranger 8 impact site",
        "mission": "Ranger 8",
        "agency": "NASA",
        "body": "moon",
        "lat": 2.6376,
        "lon": 24.7881,
        "left_behind": 1965,
        "last_contact": "1965-02-20 09:57:36.756 UT (impact)",
        "why_left": "Ranger 8 was designed to fly into the Moon on an impact trajectory and send photographs until impact. It crashed at about 2.68 km/s in Mare Tranquillitatis, so the wreck remains there.",
        "science_enabled": "Its six TV cameras sent 7,137 photographs of good quality during the last 23 minutes of flight. The final image before impact has a resolution of 1.5 m. A planned camera re-pointing was cancelled so the cameras could cover more of the surface.",
        "image": "/assets/objects/ranger-8.gif",
        "image_credit": "NASA (image of a Ranger spacecraft, via NSSDCA)",
        "dataset_id": "NSSDCA/COSPAR 1965-010A",
        "verified": true,
        "story_id": "ranger8",
        "status": "deliberate-impact",
        "location_state": "impacted",
        "last_known_location": "Moon surface; draft coordinates 2.6376, 24.7881",
        "hardware": "Lunar impact imaging probe",
        "current_status": "Destroyed by planned impact or atmospheric entry.",
        "source_url": "https://science.nasa.gov/mission/ranger-8/"
      }
    },
    {
      "type": "Feature",
      "geometry": { "type": "Point", "coordinates": [-2.3884, -12.8281] },
      "properties": {
        "id": "ranger-9",
        "name": "Ranger 9 impact site",
        "mission": "Ranger 9",
        "agency": "NASA",
        "body": "moon",
        "lat": -12.8281,
        "lon": -2.3884,
        "left_behind": 1965,
        "last_contact": "1965-03-24 14:08:19.994 UT (impact)",
        "why_left": "Ranger 9 was designed to fly into the Moon on an impact trajectory and send photographs until impact. It crashed at 2.67 km/s in the crater Alphonsus, so the wreck remains there.",
        "science_enabled": "Its six TV cameras sent 5,814 good-contrast photographs during the last 19 minutes of flight. The final image before impact has a resolution of 0.3 m. Many of the pictures were broadcast live on network television.",
        "image": "/assets/objects/ranger-9.gif",
        "image_credit": "NASA (image of a Ranger spacecraft, via NSSDCA)",
        "dataset_id": "NSSDCA/COSPAR 1965-023A",
        "verified": true,
        "story_id": "ranger9",
        "status": "deliberate-impact",
        "location_state": "impacted",
        "last_known_location": "Moon surface; draft coordinates -12.8281, -2.3884",
        "hardware": "Lunar impact imaging probe",
        "current_status": "Destroyed by planned impact or atmospheric entry.",
        "source_url": "https://science.nasa.gov/mission/ranger-9/"
      }
    },
    {
      "type": "Feature",
      "geometry": { "type": "Point", "coordinates": [160.71, 6.35] },
      "properties": {
        "id": "lunar-orbiter-1",
        "name": "Lunar Orbiter 1 (Appx)",
        "mission": "Lunar Orbiter 1",
        "agency": "NASA",
        "body": "moon",
        "lat": 6.35,
        "lon": 160.71,
        "left_behind": 1966,
        "last_contact": "1966-10-29, 13:29:06 UT (impact)",
        "why_left": "The early end to the nominal one year mission was due to the small amount of remaining attitude control gas and other deteriorating conditions and was planned to avoid transmission interference with Lunar Orbiter 2.",
        "science_enabled": "Detailed lunar surface mapping, geological study, Apollo landing-site selection, and measurements of the Moon’s radiation and micrometeoroid environment.",
        "image": "/assets/objects/lunar-orbiter-render-93cde28b.jpg",
        "image_credit": "NASA (image of a Ranger spacecraft, via NSSDCA)",
        "dataset_id": "NSSDCA/COSPAR 1965-023A",
        "verified": true,
        "story_id": "lunarorbiter1",
        "status": "deliberate-impact",
        "location_state": "impacted",
        "last_known_location": "Moon surface; draft coordinates 6.35, 160.71",
        "hardware": "Orbiter, ended by impact or atmospheric entry",
        "current_status": "Destroyed by planned impact or atmospheric entry.",
        "source_url": "https://science.nasa.gov/mission/lunar-orbiter-1/"
      }
    },
    {
      "type": "Feature",
      "geometry": { "type": "Point", "coordinates": [119.1, 3.0] },
      "properties": {
        "id": "lunar-orbiter-2",
        "name": "Lunar Orbiter 2 (Appx)",
        "mission": "Lunar Orbiter 2",
        "agency": "NASA",
        "body": "moon",
        "lat": 3.0,
        "lon": 119.1,
        "left_behind": 1967,
        "last_contact": "1967-10-11 07:12:54 UT(impact)",
        "why_left": "Commanded to impact the Moon after completing its mission and tracking operations.",
        "science_enabled": "High-resolution lunar surface mapping, detailed geological study of craters and terrain, Apollo landing-site evaluation, and micrometeoroid environment measurements.",
        "image": "/assets/objects/lunar-orbiter-render-93cde28b.jpg",
        "image_credit": "NASA (image of a Ranger spacecraft, via NSSDCA)",
        "dataset_id": "NSSDCA/COSPAR 1965-100A",
        "verified": true,
        "story_id": "lunarorbiter2",
        "status": "deliberate-impact",
        "location_state": "impacted",
        "last_known_location": "Moon surface; draft coordinates 3.0, 119.1",
        "hardware": "Orbiter, ended by impact or atmospheric entry",
        "current_status": "Destroyed by planned impact or atmospheric entry.",
        "source_url": "https://science.nasa.gov/mission/lunar-orbiter-2/"
      }
    },
    {
      "type": "Feature",
      "geometry": { "type": "Point", "coordinates": [-92.7, 14.3] },
      "properties": {
        "id": "lunar-orbiter-3",
        "name": "Lunar Orbiter 3 (Appx)",
        "mission": "Lunar Orbiter 3",
        "agency": "NASA",
        "body": "moon",
        "lat": 14.3,
        "lon": -92.7,
        "left_behind": 1967,
        "last_contact": "1967-10-09 10:27:11 UT.(impact)",
        "why_left": "Commanded to impact the Moon after completing its photography and tracking mission.",
        "science_enabled": "High-resolution lunar mapping, safe landing-site confirmation for Surveyor and Apollo, identification of the Surveyor 1 landing site, and measurements of lunar radiation and micrometeoroid impacts.",
        "image": "/assets/objects/lunar-orbiter-render-93cde28b.jpg",
        "image_credit": "NASA (image of a Ranger spacecraft, via NSSDCA)",
        "dataset_id": "NSSDCA/COSPAR 1965-008A",
        "verified": true,
        "story_id": "lunarorbiter3",
        "status": "deliberate-impact",
        "location_state": "impacted",
        "last_known_location": "Moon surface; draft coordinates 14.3, -92.7",
        "hardware": "Orbiter, ended by impact or atmospheric entry",
        "current_status": "Destroyed by planned impact or atmospheric entry.",
        "source_url": "https://science.nasa.gov/mission/lunar-orbiter-3/"
      }
    },
    {
      "type": "Feature",
      "geometry": null,
      "properties": {
        "id": "lunar-orbiter-4",
        "name": "Lunar Orbiter 4 presumed impact",
        "mission": "Lunar Orbiter 4",
        "agency": "NASA",
        "body": "moon",
        "lat": null,
        "lon": null,
        "left_behind": 1967,
        "last_contact": "1967-07-17",
        "why_left": "Lost contact on 17 July 1967; its orbit naturally decayed and it presumably impacted the Moon by October 31, 1967",
        "science_enabled": "Systematic mapping of 99% of the Moon’s near side, geological study of lunar surface features, and measurements of lunar radiation and micrometeoroid impacts.",
        "image": "/assets/objects/lunar-orbiter-render-93cde28b.jpg",
        "image_credit": "NASA (image of a Ranger spacecraft, via NSSDCA)",
        "dataset_id": "NSSDCA/COSPAR 1967-041A",
        "verified": true,
        "story_id": "lunarorbiter4",
        "status": "deliberate-impact",
        "location_state": "impacted",
        "last_known_location": "Impacted the Moon in 1967; the impact location is unknown.",
        "hardware": "Orbiter, ended by impact or atmospheric entry",
        "current_status": "Destroyed by planned impact or atmospheric entry.",
        "source_url": "https://science.nasa.gov/mission/lunar-orbiter-4/"
      }
    },
    {
      "type": "Feature",
      "geometry": { "type": "Point", "coordinates": [-83.04, -2.79] },
      "properties": {
        "id": "lunar-orbiter-5",
        "name": "Lunar Orbiter 5 (Appx)",
        "mission": "Lunar Orbiter 5",
        "agency": "NASA",
        "body": "moon",
        "lat": -2.79,
        "lon": -83.04,
        "left_behind": 1968,
        "last_contact": "1968-01-31 7:58:08",
        "why_left": "Commanded to impact the Moon after completing its photography, experiments, and tracking mission.",
        "science_enabled": "Additional Apollo and Surveyor landing-site photography, mapping of previously unphotographed lunar regions, and measurements of lunar radiation and micrometeoroid impacts.",
        "image": "/assets/objects/lunar-orbiter-render-93cde28b.jpg",
        "image_credit": "NASA (image of a Ranger spacecraft, via NSSDCA)",
        "dataset_id": "NSSDCA/COSPAR 1967-075A",
        "verified": true,
        "story_id": "lunarorbiter5",
        "status": "deliberate-impact",
        "location_state": "impacted",
        "last_known_location": "Moon surface; draft coordinates -2.79, -83.04",
        "hardware": "Orbiter, ended by impact or atmospheric entry",
        "current_status": "Destroyed by planned impact or atmospheric entry.",
        "source_url": "https://science.nasa.gov/mission/lunar-orbiter-5/"
      }
    },
    {
      "type": "Feature",
      "geometry": { "type": "Point", "coordinates": [-26.594, 75.6088] },
      "properties": {
        "id": "grail-a",
        "name": "Grail A",
        "mission": "Grail",
        "agency": "NASA",
        "body": "moon",
        "lat": 75.6088,
        "lon": -26.594,
        "left_behind": 2012,
        "last_contact": "2012-12-17",
        "why_left": "Mission ended after completing the lunar gravity-mapping science phase; spacecraft was intentionally impacted on the Moon.",
        "science_enabled": "Mapping the Moon’s gravity field, crust and lithosphere structure, impact basins and mascons, and constraining its thermal evolution and deep interior.",
        "image": "/assets/objects/grail_2.jpg",
        "image_credit": "NASA (GRAIL spacecraft illustration; attribution awaiting owner review)",
        "dataset_id": "NSSDCA/COSPAR ID: 2011-046A",
        "verified": true,
        "story_id": "grail-a",
        "status": "deliberate-impact",
        "location_state": "impacted",
        "last_known_location": "Moon surface; draft coordinates 75.6088, -26.594",
        "hardware": "Orbiter, ended by impact or atmospheric entry",
        "current_status": "Destroyed by planned impact or atmospheric entry.",
        "source_url": "https://science.nasa.gov/mission/grail/"
      }
    },
    {
      "type": "Feature",
      "geometry": { "type": "Point", "coordinates": [-26.8341, 75.6508] },
      "properties": {
        "id": "grail-b",
        "name": "Grail B",
        "mission": "Grail",
        "agency": "NASA",
        "body": "moon",
        "lat": 75.6508,
        "lon": -26.8341,
        "left_behind": 2012,
        "last_contact": "2012-12-17",
        "why_left": "Mission ended after completing the lunar gravity-mapping science phase; spacecraft was intentionally impacted on the Moon.",
        "science_enabled": "Mapping the Moon’s gravity field, crust and lithosphere structure, impact basins and mascons, and constraining its thermal evolution and deep interior.",
        "image": "/assets/objects/grail_2.jpg",
        "image_credit": "NASA (GRAIL spacecraft illustration; attribution awaiting owner review)",
        "dataset_id": "NSSDCA/COSPAR ID: 2011-046A",
        "verified": true,
        "story_id": "grail-a",
        "status": "deliberate-impact",
        "location_state": "impacted",
        "last_known_location": "Moon surface; draft coordinates 75.6508, -26.8341",
        "hardware": "Orbiter, ended by impact or atmospheric entry",
        "current_status": "Destroyed by planned impact or atmospheric entry.",
        "source_url": "https://science.nasa.gov/mission/grail/"
      }
    },
    {
      "type": "Feature",
      "geometry": { "type": "Point", "coordinates": [-93.2494, 11.8494] },
      "properties": {
        "id": "ladee",
        "name": "LADEE (eastern rim of Sundman V crater)",
        "mission": "LADEE",
        "agency": "NASA",
        "body": "moon",
        "lat": 11.8494,
        "lon": -93.2494,
        "left_behind": 2014,
        "last_contact": "2014-04-18",
        "why_left": "Its science mission ended and the spacecraft was intentionally impacted on the Moon on April 18, 2014 after its low-altitude orbit naturally decayed.",
        "science_enabled": "Study of the lunar exosphere’s composition and variability, lunar dust environment, micrometeoroid-generated dust, and the interaction between lunar dust and the atmosphere.",
        "image": "/assets/objects/ladee.jpg",
        "image_credit": "NASA (LADEE spacecraft; attribution awaiting owner review)",
        "dataset_id": "NSSDCA/COSPAR ID: 2013-047A",
        "verified": true,
        "story_id": "ladee",
        "status": "deliberate-impact",
        "location_state": "impacted",
        "last_known_location": "Moon surface; draft coordinates 11.8494, -93.2494",
        "hardware": "Orbiter, ended by impact or atmospheric entry",
        "current_status": "Destroyed by planned impact or atmospheric entry.",
        "source_url": "https://science.nasa.gov/mission/ladee/"
      }
    },
    {
      "type": "Feature",
      "geometry": { "type": "Point", "coordinates": [-53.0, 9.4] },
      "properties": {
        "id": "cassini",
        "name": "Cassini (Appx)",
        "mission": "Cassini-Huygens",
        "agency": "NASA",
        "body": "solar system",
        "lat": 9.4,
        "lon": -53.0,
        "left_behind": 2017,
        "last_contact": "2017-09-15 (final signal received at Earth about 11:55 UTC).",
        "why_left": "Deliberately sent into Saturn as fuel ran low, protecting potentially habitable moons from accidental contamination.",
        "science_enabled": "Observed Enceladus’s water-rich plumes and Titan’s methane lakes. These discoveries made ocean moons major targets for later exploration.",
        "image": "/assets/objects/1-pia18410-cassini-titan-crop.webp",
        "image_credit": "NASA/JPL",
        "dataset_id": "NASA mission archive: cassini",
        "verified": true,
        "story_id": null,
        "status": "deliberate-impact",
        "location_state": "impacted",
        "last_known_location": "Approximate Saturn atmospheric entry at 9.4 degrees north, 53 degrees west; not a solid-surface wreck location.",
        "hardware": "Orbiter, ended by impact or atmospheric entry",
        "current_status": "Destroyed by planned impact or atmospheric entry.",
        "source_url": "https://science.nasa.gov/mission/cassini/"
      }
    },
    {
      "type": "Feature",
      "geometry": { "type": "Point", "coordinates": [-12.0, 5.5] },
      "properties": {
        "id": "surveyor-2",
        "name": "Surveyor 2 (Appx)",
        "mission": "Surveyor 2",
        "agency": "NASA",
        "body": "moon",
        "lat": 5.5,
        "lon": -12.0,
        "left_behind": 1966,
        "last_contact": "1966-09-22 around 09:34 UTC; separate from reported impact date 23 September.",
        "why_left": "A failed correction thruster caused an uncontrolled spin; contact ended during descent.",
        "science_enabled": "Returned no lunar surface science. The failed descent supplied engineering experience for the continuing Surveyor program.",
        "image": "/assets/objects/surveyor-3.gif",
        "image_credit": "NSSDCA",
        "dataset_id": "NSSDCA/COSPAR 1966-084A",
        "verified": true,
        "story_id": null,
        "status": "silent",
        "location_state": "impacted",
        "last_known_location": "Historically reported approximate lunar impact area southeast of Copernicus; no located wreck is claimed.",
        "hardware": "Lander",
        "current_status": "Not communicating; no active mission operations.",
        "source_url": "https://science.nasa.gov/mission/surveyor-2/"
      }
    },
    {
      "type": "Feature",
      "geometry": { "type": "Point", "coordinates": [-1.5, 0.5] },
      "properties": {
        "id": "surveyor-4",
        "name": "Surveyor 4 (Appx)",
        "mission": "Surveyor 4",
        "agency": "NASA",
        "body": "moon",
        "lat": 0.5,
        "lon": -1.5,
        "left_behind": 1967,
        "last_contact": "1967-07-17 around 02:03 UTC.",
        "why_left": "Radio stopped during descent; a retro-rocket explosion was suspected, not conclusively established.",
        "science_enabled": "No surface pictures or soil measurements were returned. Its loss highlighted descent-system risks for subsequent missions.",
        "image": "/assets/objects/surveyor-3.gif",
        "image_credit": "NSSDCA",
        "dataset_id": "NSSDCA/COSPAR 1967-068A",
        "verified": true,
        "story_id": null,
        "status": "silent",
        "location_state": "impacted",
        "last_known_location": "Approximate intended descent/impact area at Sinus Medii; NASA lists the actual impact location as unknown.",
        "hardware": "Lander",
        "current_status": "Not communicating; no active mission operations.",
        "source_url": "https://science.nasa.gov/mission/surveyor-4/"
      }
    },
    {
      "type": "Feature",
      "geometry": { "type": "Point", "coordinates": [42.0, -87.7] },
      "properties": {
        "id": "lunar-prospector",
        "name": "Lunar Prospector (Appx)",
        "mission": "Lunar Prospector",
        "agency": "NASA",
        "body": "moon",
        "lat": -87.7,
        "lon": 42.0,
        "left_behind": 1999,
        "last_contact": "1999-07-31 (planned impact at about 09:52 UTC).",
        "why_left": "Intentionally crashed into a shadowed south-polar crater after its mapping mission, seeking an observable water signal.",
        "science_enabled": "Neutron measurements found polar hydrogen consistent with water ice; gravity and elemental maps improved understanding of the Moon. The impact produced no detected water plume.",
        "image": "assets/objects/lunarprosp.gif",
        "image_credit": "NSSDCA",
        "dataset_id": "NSSDCA/COSPAR 1998-001A",
        "verified": true,
        "story_id": null,
        "status": "deliberate-impact",
        "location_state": "impacted",
        "last_known_location": "Approximate south-polar lunar impact position.",
        "hardware": "Orbiter, ended by impact or atmospheric entry",
        "current_status": "Destroyed by planned impact or atmospheric entry.",
        "source_url": "https://science.nasa.gov/mission/lunar-prospector/"
      }
    },
    {
      "type": "Feature",
      "geometry": { "type": "Point", "coordinates": [165.0, -76.0] },
      "properties": {
        "id": "mars-polar-lander",
        "name": "Mars Polar Lander (Appx)",
        "mission": "Mars Polar Lander",
        "agency": "NASA",
        "body": "mars",
        "lat": -76.0,
        "lon": 165.0,
        "left_behind": 1999,
        "last_contact": "1999-12-03 (before atmospheric entry; no post-landing signal).",
        "why_left": "Likely crashed after landing-leg signals were mistaken for touchdown and the engines shut down early; the failure was not directly observed.",
        "science_enabled": "No surface science returned. The loss led to changes in testing and landing-system design.",
        "image": "assets/objects/mars_polar_lander.jpg",
        "image_credit": "NSSDCA",
        "dataset_id": "NSSDCA/COSPAR 1999-001A",
        "verified": true,
        "story_id": null,
        "status": "silent",
        "location_state": "impacted",
        "last_known_location": "Approximate intended landing/search area: 76 degrees south, 195 degrees west (165 degrees east). Actual crash location remains unconfirmed.",
        "hardware": "Lander",
        "current_status": "Not communicating; no active mission operations.",
        "source_url": "https://science.nasa.gov/mission/mars-polar-lander-deep-space-2/"
      }
    },
    {
      "type": "Feature",
      "geometry": { "type": "Point", "coordinates": [-23.42, -3.01] },
      "properties": {
        "id": "apollo-12-alsep",
        "name": "Apollo 12 ALSEP station (Appx)",
        "mission": "Apollo 12",
        "agency": "NASA",
        "body": "moon",
        "lat": -3.01,
        "lon": -23.42,
        "left_behind": 1977,
        "last_contact": "1977-09-30 (scientific support ended; carrier signals are not science telemetry).",
        "why_left": "NASA ended funded operations and scientific data reception after years of extended service. Passive laser reflectors were separate and were not switched off.",
        "science_enabled": "Long-term measurements of moonquakes and the lunar environment helped scientists study the Moon’s interior; archived measurements support later reanalysis.",
        "image": "/assets/objects/apollo12_lunar_module.jpg",
        "image_credit": "NSSDCA",
        "dataset_id": "NASA ALSEP archive / Apollo 12",
        "verified": true,
        "story_id": null,
        "status": "ended-by-design",
        "location_state": "on-surface",
        "last_known_location": "Approximate Apollo 12 landing area; the science station was deployed separately near the lunar module.",
        "hardware": "Lunar surface science station",
        "current_status": "Routine mission operations ended by command or planned retirement.",
        "source_url": "https://www.nasa.gov/mission/apollo-12/"
      }
    },
     {
      "type": "Feature",
      "geometry": { "type": "Point", "coordinates": [-17.47, -3.65] },
      "properties": {
        "id": "apollo-14-alsep",
        "name": "Apollo 14 ALSEP station (Appx)",
        "mission": "Apollo 14",
        "agency": "NASA",
        "body": "moon",
        "lat": -3.65,
        "lon": -17.47,
        "left_behind": 1977,
        "last_contact": "1977-09-30 (scientific support ended; carrier signals are not science telemetry).",
        "why_left": "NASA ended funded operations and scientific data reception after years of extended service. Passive laser reflectors were separate and were not switched off.",
        "science_enabled": "Long-term measurements of moonquakes and the lunar environment helped scientists study the Moon’s interior; archived measurements support later reanalysis.",
        "image": "/assets/objects/apollo_14_lm.jpg",
        "image_credit": "NSSDCA",
        "dataset_id": "NASA ALSEP archive / Apollo 14",
        "verified": true,
        "story_id": null,
        "status": "ended-by-design",
        "location_state": "on-surface",
        "last_known_location": "Approximate Apollo 14 landing area; the science station was deployed separately near the lunar module.",
        "hardware": "Lunar surface science station",
        "current_status": "Routine mission operations ended by command or planned retirement.",
        "source_url": "https://www.nasa.gov/missions/apollo/apollo-14-mission-details/"
      }
    },
      {
      "type": "Feature",
      "geometry": { "type": "Point", "coordinates": [3.63, 26.13] },
      "properties": {
        "id": "apollo-15-alsep",
        "name": "Apollo 15 ALSEP station (Appx)",
        "mission": "Apollo 15",
        "agency": "NASA",
        "body": "moon",
        "lat": 26.13,
        "lon": 3.63,
        "left_behind": 1977,
        "last_contact": "1977-09-30 (scientific support ended; carrier signals are not science telemetry).",
        "why_left": "NASA ended funded operations and scientific data reception after years of extended service. Passive laser reflectors were separate and were not switched off.",
        "science_enabled": "Long-term measurements of moonquakes and the lunar environment helped scientists study the Moon’s interior; archived measurements support later reanalysis.",
        "image": "/assets/objects/apollo_15_lm.jpg",
        "image_credit": "NSSDCA",
        "dataset_id": "NASA ALSEP archive / Apollo 15",
        "verified": true,
        "story_id": null,
        "status": "ended-by-design",
        "location_state": "on-surface",
        "last_known_location": "Approximate Apollo 15 landing area; the science station was deployed separately near the lunar module.",
        "hardware": "Lunar surface science station",
        "current_status": "Routine mission operations ended by command or planned retirement.",
        "source_url": "https://www.nasa.gov/missions/apollo/apollo-15-mission-details/"
      }
    },
    {
  "type": "Feature",
  "geometry": { "type": "Point", "coordinates": [15.4981, -8.9754] },
  "properties": {
    "id": "apollo-16-alsep",
    "name": "Apollo 16 ALSEP station",
    "mission": "Apollo 16",
    "agency": "NASA",
    "body": "moon",
    "lat": -8.9754,
    "lon": 15.4981,
    "left_behind": 1977,
    "last_contact": "1977-09-30 (ALSEP central station shut down along with the other ALSEP stations)",
    "why_left": "The astronauts deployed the ALSEP near the Apollo 16 landing site and left it on the surface when they returned to lunar orbit. Its central station was shut down on 30 September 1977 along with the other ALSEP stations. The heat flow experiment had already been rendered inoperable during setup, when a cable was broken.",
    "science_enabled": "Carried a passive seismometer for moonquakes and the crust and interior, an active seismometer for the structure of the local near-surface layers, a lunar surface magnetometer, and a heat flow experiment. The central station was turned on on 21 April 1972 and powered by a SNAP-27 radioisotope generator.",
    "image": "/assets/objects/apollo_16_lm.jpg",
    "image_credit": "NASA (image via NSSDCA)",
    "dataset_id": "NSSDCA/COSPAR 1972-031C",
    "verified": true,
    "story_id": null,
    "status": "ended-by-design",
    "location_state": "on-surface",
    "last_known_location": "Moon surface, Descartes highlands; ALSEP central station at 8.9754 S, 15.4981 E, near where the lunar module landed (8.9730 S, 15.5002 E).",
    "hardware": "ALSEP science station (central station with SNAP-27 radioisotope generator, passive and active seismometers, magnetometer, heat flow experiment)",
    "current_status": "Routine mission operations ended by command or planned retirement.",
    "source_url": "https://www.nasa.gov/missions/apollo/apollo-16-mission-details/"
  }
},
{
  "type": "Feature",
  "geometry": { "type": "Point", "coordinates": [30.7649, 20.1921] },
  "properties": {
    "id": "apollo-17-alsep",
    "name": "Apollo 17 ALSEP station",
    "mission": "Apollo 17",
    "agency": "NASA",
    "body": "moon",
    "lat": 20.1921,
    "lon": 30.7649,
    "left_behind": 1977,
    "last_contact": "1977-09-30 (ALSEP central station shut down along with the other ALSEP stations)",
    "why_left": "The astronauts deployed the ALSEP near the Apollo 17 landing site and left it on the surface when they returned to lunar orbit. Its central station was shut down on 30 September 1977 along with the other ALSEP stations.",
    "science_enabled": "Carried a heat flow experiment, a surface gravimeter, a mass spectrometer for the thin lunar atmosphere, a seismic profiling experiment, and a lunar ejecta and meteorites experiment. The central station was turned on on 12 December 1972 and powered by a SNAP-27 radioisotope generator.",
    "image": "/assets/objects/apollo_17_lm.jpg",
    "image_credit": "NASA (image via NSSDCA)",
    "dataset_id": "NSSDCA/COSPAR 1972-096C",
    "verified": true,
    "story_id": null,
    "status": "ended-by-design",
    "location_state": "on-surface",
    "last_known_location": "Moon surface, Taurus-Littrow valley; ALSEP central station at 20.1921 N, 30.7649 E, near where the lunar module landed (20.1911 N, 30.7723 E).",
    "hardware": "ALSEP science station (central station with SNAP-27 radioisotope generator, heat flow experiment, gravimeter, mass spectrometer, seismic profiling and ejecta experiments)",
    "current_status": "Routine mission operations ended by command or planned retirement.",
    "source_url": "https://www.nasa.gov/missions/apollo/apollo-17-mission-details/"
  }
}
 ]
}
